[{"OBJECT_NAME":"YAOGAN-19","OBJECT_ID":"2013-065A","EPOCH":"2026-03-09T22:04:30.738144","MEAN_MOTION":13.15578826,"ECCENTRICITY":0.00090241,"INCLINATION":100.1035,"RA_OF_ASC_NODE":49.7884,"ARG_OF_PERICENTER":320.185,"MEAN_ANOMALY":39.8601,"EPHEMERIS_TYPE":0,"CLASSIFICATION_TYPE":"U","NORAD_CAT_ID":39410,"ELEMENT_SET_NO":999,"REV_AT_EPOCH":59059,"BSTAR":0.00094809629,"MEAN_MOTION_DOT":3.15e-6,"MEAN_MOTION_DDOT":0},{"OBJECT_NAME":"ONEWEB-0268","OBJECT_ID":"2021-060V","EPOCH":"2026-03-09T22:23:37.282560","MEAN_MOTION":13.16593671,"ECCENTRICITY":0.00015606,"INCLINATION":87.9003,"RA_OF_ASC_NODE":248.5218,"ARG_OF_PERICENTER":97.4366,"MEAN_ANOMALY":262.6943,"EPHEMERIS_TYPE":0,"CLASSIFICATION_TYPE":"U","NORAD_CAT_ID":48986,"ELEMENT_SET_NO":999,"REV_AT_EPOCH":22679,"BSTAR":1.8319038e-5,"MEAN_MOTION_DOT":2.0e-7,"MEAN_MOTION_DDOT":0}]
